[
  {
    "name": "PLEIADES NEO 3",
    "line1": "1 48268U 21034A   25342.74405889  .00000155  00000+0  26373-4 0  9994",
    "line2": "2 48268  97.8951  55.2426 0001321  96.8660 263.2703 14.81674889249458",
    "catNr": 48268
  },
  {
    "name": "PLEIADES NEO 4",
    "line1": "1 49070U 21073E   25343.31807149  .00000105  00000+0  19922-4 0  9995",
    "line2": "2 49070  97.8949  55.8040 0001287  95.2509 264.8851 14.81677158233255",
    "catNr": 49070
  }
]